{
  "type": "FeatureCollection",
  "features": [
    {
      "type": "Feature",
      "properties": {
        "norad_id": 36148,
        "name": "FENGYUN 1C DEB",
        "group": "fengyun-1c-debris",
        "lat": 52.48924655740796,
        "lon": 20.760508472374333,
        "alt_km": 1018.6482072411054,
        "timestamp": "2025-12-03T22:42:32.921876+00:00",
        "meta_object_name": "FENGYUN 1C DEB",
        "meta_object_id": "1999-025DRV",
        "meta_epoch": "2025-12-01T19:49:52.589568",
        "meta_mean_motion": 13.84775796,
        "meta_eccentricity": 0.02844186,
        "meta_inclination": 98.4221,
        "meta_ra_of_asc_node": 187.7265,
        "meta_arg_of_pericenter": 19.3374,
        "meta_mean_anomaly": 341.832,
        "meta_ephemeris_type": 0,
        "meta_classification_type": "U",
        "meta_norad_cat_id": 36148,
        "meta_element_set_no": 999,
        "meta_rev_at_epoch": 90093,
        "meta_bstar": 0.0033360095,
        "meta_mean_motion_dot": 5.112e-05,
        "meta_mean_motion_ddot": 0,
        "tle_line1": "1 36148U 99025DRV 25335.82630312  .00005112  00000+0  33360-2 0  9995",
        "tle_line2": "2 36148  98.4221 187.7265 0284418  19.3374 341.8320 13.84775796900939"
      },
      "geometry": {
        "type": "Point",
        "coordinates": [
          20.760508472374333,
          52.48924655740796
        ]
      }
    },
    {
      "type": "Feature",
      "properties": {
        "norad_id": 36152,
        "name": "FENGYUN 1C DEB",
        "group": "fengyun-1c-debris",
        "lat": -7.930609104606761,
        "lon": 19.108404045223665,
        "alt_km": 855.3544143810259,
        "timestamp": "2025-12-03T22:42:32.921885+00:00",
        "meta_object_name": "FENGYUN 1C DEB",
        "meta_object_id": "1999-025DRZ",
        "meta_epoch": "2025-12-01T19:54:46.717632",
        "meta_mean_motion": 14.17165266,
        "meta_eccentricity": 0.00551923,
        "meta_inclination": 98.7567,
        "meta_ra_of_asc_node": 15.7938,
        "meta_arg_of_pericenter": 243.2962,
        "meta_mean_anomaly": 116.2556,
        "meta_ephemeris_type": 0,
        "meta_classification_type": "U",
        "meta_norad_cat_id": 36152,
        "meta_element_set_no": 999,
        "meta_rev_at_epoch": 64002,
        "meta_bstar": 0.0012638311,
        "meta_mean_motion_dot": 2.542e-05,
        "meta_mean_motion_ddot": 0,
        "tle_line1": "1 36152U 99025DRZ 25335.82970738  .00002542  00000+0  12638-2 0  9998",
        "tle_line2": "2 36152  98.7567  15.7938 0055192 243.2962 116.2556 14.17165266640021"
      },
      "geometry": {
        "type": "Point",
        "coordinates": [
          19.108404045223665,
          -7.930609104606761
        ]
      }
    },
    {
      "type": "Feature",
      "properties": {
        "norad_id": 36163,
        "name": "FENGYUN 1C DEB",
        "group": "fengyun-1c-debris",
        "lat": -68.87632084468437,
        "lon": -23.23605159338804,
        "alt_km": 727.9744414687502,
        "timestamp": "2025-12-03T22:42:32.921894+00:00",
        "meta_object_name": "FENGYUN 1C DEB",
        "meta_object_id": "1999-025DSL",
        "meta_epoch": "2025-11-27T12:26:15.654336",
        "meta_mean_motion": 14.58361311,
        "meta_eccentricity": 0.00369307,
        "meta_inclination": 99.0776,
        "meta_ra_of_asc_node": 174.1952,
        "meta_arg_of_pericenter": 119.0745,
        "meta_mean_anomaly": 241.4158,
        "meta_ephemeris_type": 0,
        "meta_classification_type": "U",
        "meta_norad_cat_id": 36163,
        "meta_element_set_no": 999,
        "meta_rev_at_epoch": 88965,
        "meta_bstar": 0.0029707469,
        "meta_mean_motion_dot": 0.00013857,
        "meta_mean_motion_ddot": 0,
        "tle_line1": "1 36163U 99025DSL 25331.51823674  .00013857  00000+0  29707-2 0  9994",
        "tle_line2": "2 36163  99.0776 174.1952 0036930 119.0745 241.4158 14.58361311889650"
      },
      "geometry": {
        "type": "Point",
        "coordinates": [
          -23.23605159338804,
          -68.87632084468437
        ]
      }
    },
    {
      "type": "Feature",
      "properties": {
        "norad_id": 36167,
        "name": "FENGYUN 1C DEB",
        "group": "fengyun-1c-debris",
        "lat": -66.69717734543484,
        "lon": -94.15948372285484,
        "alt_km": 689.3730012924634,
        "timestamp": "2025-12-03T22:42:32.921903+00:00",
        "meta_object_name": "FENGYUN 1C DEB",
        "meta_object_id": "1999-025DSQ",
        "meta_epoch": "2025-12-03T11:25:18.105600",
        "meta_mean_motion": 14.49112363,
        "meta_eccentricity": 0.0069467,
        "meta_inclination": 98.8131,
        "meta_ra_of_asc_node": 244.2376,
        "meta_arg_of_pericenter": 272.8926,
        "meta_mean_anomaly": 86.4318,
        "meta_ephemeris_type": 0,
        "meta_classification_type": "U",
        "meta_norad_cat_id": 36167,
        "meta_element_set_no": 999,
        "meta_rev_at_epoch": 67145,
        "meta_bstar": 0.0017038,
        "meta_mean_motion_dot": 6.631e-05,
        "meta_mean_motion_ddot": 0,
        "tle_line1": "1 36167U 99025DSQ 25337.47590400  .00006631  00000+0  17038-2 0  9993",
        "tle_line2": "2 36167  98.8131 244.2376 0069467 272.8926  86.4318 14.49112363671458"
      },
      "geometry": {
        "type": "Point",
        "coordinates": [
          -94.15948372285484,
          -66.69717734543484
        ]
      }
    },
    {
      "type": "Feature",
      "properties": {
        "norad_id": 36173,
        "name": "FENGYUN 1C DEB",
        "group": "fengyun-1c-debris",
        "lat": 28.259183062058394,
        "lon": -68.83580596405922,
        "alt_km": 911.5044585001297,
        "timestamp": "2025-12-03T22:42:32.921912+00:00",
        "meta_object_name": "FENGYUN 1C DEB",
        "meta_object_id": "1999-025DSW",
        "meta_epoch": "2025-11-27T03:07:28.371072",
        "meta_mean_motion": 14.25142788,
        "meta_eccentricity": 0.01460397,
        "meta_inclination": 98.2105,
        "meta_ra_of_asc_node": 289.2336,
        "meta_arg_of_pericenter": 231.4906,
        "meta_mean_anomaly": 127.3105,
        "meta_ephemeris_type": 0,
        "meta_classification_type": "U",
        "meta_norad_cat_id": 36173,
        "meta_element_set_no": 999,
        "meta_rev_at_epoch": 58868,
        "meta_bstar": 0.00039734703,
        "meta_mean_motion_dot": 1e-05,
        "meta_mean_motion_ddot": 0,
        "tle_line1": "1 36173U 99025DSW 25331.13018948  .00001000  00000+0  39735-3 0  9993",
        "tle_line2": "2 36173  98.2105 289.2336 0146039 231.4906 127.3105 14.25142788588684"
      },
      "geometry": {
        "type": "Point",
        "coordinates": [
          -68.83580596405922,
          28.259183062058394
        ]
      }
    },
    {
      "type": "Feature",
      "properties": {
        "norad_id": 36180,
        "name": "FENGYUN 1C DEB",
        "group": "fengyun-1c-debris",
        "lat": 29.77317586731107,
        "lon": -133.1813129608311,
        "alt_km": 827.4429290890312,
        "timestamp": "2025-12-03T22:42:32.921921+00:00",
        "meta_object_name": "FENGYUN 1C DEB",
        "meta_object_id": "1999-025DTD",
        "meta_epoch": "2025-11-17T22:19:25.486176",
        "meta_mean_motion": 14.20613905,
        "meta_eccentricity": 0.02130555,
        "meta_inclination": 98.4573,
        "meta_ra_of_asc_node": 26.5989,
        "meta_arg_of_pericenter": 102.8674,
        "meta_mean_anomaly": 259.6397,
        "meta_ephemeris_type": 0,
        "meta_classification_type": "U",
        "meta_norad_cat_id": 36180,
        "meta_element_set_no": 999,
        "meta_rev_at_epoch": 70231,
        "meta_bstar": 0.00075960247,
        "meta_mean_motion_dot": 2.013e-05,
        "meta_mean_motion_ddot": 0,
        "tle_line1": "1 36180U 99025DTD 25321.93015609  .00002013  00000+0  75960-3 0  9994",
        "tle_line2": "2 36180  98.4573  26.5989 0213055 102.8674 259.6397 14.20613905702314"
      },
      "geometry": {
        "type": "Point",
        "coordinates": [
          -133.1813129608311,
          29.77317586731107
        ]
      }
    },
    {
      "type": "Feature",
      "properties": {
        "norad_id": 36182,
        "name": "FENGYUN 1C DEB",
        "group": "fengyun-1c-debris",
        "lat": -56.24863805094486,
        "lon": -81.09473464906536,
        "alt_km": 797.4249859975571,
        "timestamp": "2025-12-03T22:42:32.921930+00:00",
        "meta_object_name": "FENGYUN 1C DEB",
        "meta_object_id": "1999-025DTF",
        "meta_epoch": "2025-12-03T06:14:16.053792",
        "meta_mean_motion": 14.34588285,
        "meta_eccentricity": 0.0021165,
        "meta_inclination": 99.0879,
        "meta_ra_of_asc_node": 264.3247,
        "meta_arg_of_pericenter": 102.3158,
        "meta_mean_anomaly": 258.0397,
        "meta_ephemeris_type": 0,
        "meta_classification_type": "U",
        "meta_norad_cat_id": 36182,
        "meta_element_set_no": 999,
        "meta_rev_at_epoch": 87821,
        "meta_bstar": 0.0021717,
        "meta_mean_motion_dot": 6.107e-05,
        "meta_mean_motion_ddot": 0,
        "tle_line1": "1 36182U 99025DTF 25337.25990803  .00006107  00000+0  21717-2 0  9994",
        "tle_line2": "2 36182  99.0879 264.3247 0021165 102.3158 258.0397 14.34588285878215"
      },
      "geometry": {
        "type": "Point",
        "coordinates": [
          -81.09473464906536,
          -56.24863805094486
        ]
      }
    }
  ]
}